TRANSPORTER-12 OBJECT AZ
1 62656U 25009AZ  26068.71026235  .00016057  00000+0  54903-3 0  9991
2 62656  97.3981 151.9913 0000987  45.3581 314.7740 15.30349724 63792
STARLINK-33829          
1 63496U 25071D   26068.51972162  .00023428  00000+0  80040-3 0  9991
2 63496  53.1599 140.7355 0001182  72.3028 287.8101 15.30209390 52681
